{
  "norad_id": 53901,
  "name": "STARLINK-5024",
  "history": [
    {
      "epoch": "2026-03-29T03:54:57.531168Z",
      "apogee_km": 279.90070368087345,
      "perigee_km": 267.6186416644505,
      "latitude_deg": 7.317698823011253e-05,
      "longitude_deg": -101.98156324053483,
      "height_km": 269.00129926292084,
      "semi_major_axis_km": 6651.896672672662,
      "eccentricity": 0.0009232,
      "inclination_deg": 53.1969,
      "raan_deg": 143.3313,
      "arg_perigee_deg": 22.2346,
      "mean_anomaly_deg": 337.9085,
      "mean_motion_rev_day": 16.00237783
    },
    {
      "epoch": "2026-03-30T05:23:32.892864Z",
      "apogee_km": 277.10096272676583,
      "perigee_km": 264.9077672916128,
      "latitude_deg": 5.881578865265146e-06,
      "longitude_deg": -130.64573525854613,
      "height_km": 266.4590204295966,
      "semi_major_axis_km": 6649.141365009189,
      "eccentricity": 0.0009169,
      "inclination_deg": 53.1962,
      "raan_deg": 137.8608,
      "arg_perigee_deg": 26.1889,
      "mean_anomaly_deg": 333.9605,
      "mean_motion_rev_day": 16.01232559
    }
  ]
}